[{"OBJECT_NAME":"STARLINK-5835","OBJECT_ID":"2023-028AH","EPOCH":"2026-03-09T22:00:01.999584","MEAN_MOTION":14.98332313,"ECCENTRICITY":0.00030417,"INCLINATION":70.001,"RA_OF_ASC_NODE":223.763,"ARG_OF_PERICENTER":274.9702,"MEAN_ANOMALY":315.6363,"EPHEMERIS_TYPE":0,"CLASSIFICATION_TYPE":"U","NORAD_CAT_ID":55772,"ELEMENT_SET_NO":999,"REV_AT_EPOCH":575,"BSTAR":0.0011680208,"MEAN_MOTION_DOT":0.00013872,"MEAN_MOTION_DDOT":0},{"OBJECT_NAME":"SL-14 R\/B","OBJECT_ID":"1977-055B","EPOCH":"2026-03-09T12:09:50.153472","MEAN_MOTION":14.92006976,"ECCENTRICITY":0.00409775,"INCLINATION":75.8306,"RA_OF_ASC_NODE":90.7175,"ARG_OF_PERICENTER":356.0217,"MEAN_ANOMALY":4.0643,"EPHEMERIS_TYPE":0,"CLASSIFICATION_TYPE":"U","NORAD_CAT_ID":10096,"ELEMENT_SET_NO":999,"REV_AT_EPOCH":63654,"BSTAR":8.4112642e-5,"MEAN_MOTION_DOT":8.45e-6,"MEAN_MOTION_DDOT":0}]
